     2.10           NAVIGATION DATA                         RINEX VERSION / TYPE
SPIDER V4,0,0,3554                      2015 03 27 00:22    PGM / RUN BY / DATE 
   2.6077D-08  7.4506D-09 -1.1921D-07  0.0000D+00           ION ALPHA           
   1.2902D+05  0.0000D+00 -2.6214D+05  2.6214D+05           ION BETA            
    9.313225746155D-10 5.329070518201D-15    61440     1838 DELTA-UTC: A0,A1,T,W
    16                                                      LEAP SECONDS        
                                                            END OF HEADER       
14 15 03 26 17 59 44.0 7.553771138191D-05-2.728484105319D-12 0.000000000000D+00
    1.000000000000D+00 4.581250000000D+01 4.408040599202D-09-1.844855669324D+00
    2.445653080940D-06 7.894159993157D-03 9.519979357719D-06 5.153574785233D+03
    4.103840000000D+05 1.154839992523D-07 1.363270536547D+00 1.490116119385D-08
    9.669881379545D-01 1.975937500000D+02-1.975170866983D+00-7.826040260284D-09
   -1.307197267097D-10 1.000000000000D+00 1.837000000000D+03 0.000000000000D+00
    2.000000000000D+00 0.000000000000D+00-9.313225746155D-09 1.000000000000D+00
    4.103840000000D+05 0.000000000000D+00
31 15 03 26 18 00  0.0 3.201956860721D-04-9.094947017729D-13 0.000000000000D+00
    3.300000000000D+01 6.571875000000D+01 4.306965006862D-09 1.698435538612D+00
    3.634020686150D-06 8.199955802411D-03 6.025657057762D-06 5.153754661560D+03
    4.104000000000D+05 1.024454832077D-07 2.367045205208D+00 9.313225746155D-09
    9.756451107579D-01 2.655937500000D+02-5.281393875597D-01-8.038549381695D-09
   -1.014327996596D-10 1.000000000000D+00 1.837000000000D+03 0.000000000000D+00
    2.000000000000D+00 0.000000000000D+00-1.350417733192D-08 3.300000000000D+01
    4.104000000000D+05 0.000000000000D+00
24 15 03 26 20 00  0.0-4.562642425299D-05-5.684341886081D-13 0.000000000000D+00
    4.100000000000D+01 6.003125000000D+01 4.806985920425D-09-2.592039002429D+00
    3.030523657799D-06 3.176989383064D-03 5.992129445076D-06 5.153682231903D+03
    4.176000000000D+05-7.450580596924D-09 2.319694354958D+00-5.774199962616D-08
    9.539483723045D-01 2.614062500000D+02 3.332391815952D-01-8.276058949264D-09
    5.428797689166D-11 1.000000000000D+00 1.837000000000D+03 0.000000000000D+00
    2.000000000000D+00 0.000000000000D+00 2.328306436539D-09 4.100000000000D+01
    4.176000000000D+05 0.000000000000D+00
12 15 03 26 20 00  0.0 2.797720953822D-04 3.069544618484D-12 0.000000000000D+00
    8.600000000000D+01-3.600000000000D+01 3.936949877215D-09 2.396394358415D+00
   -2.030283212662D-06 5.457372986712D-03 5.541369318962D-06 5.153716068268D+03
    4.176000000000D+05-1.527369022369D-07-2.856364341143D+00-9.126961231232D-08
    9.896979896024D-01 2.871875000000D+02 5.394827841262D-01-7.876399088502D-09
   -1.478633049334D-10 1.000000000000D+00 1.837000000000D+03 0.000000000000D+00
    2.000000000000D+00 0.000000000000D+00-1.257285475731D-08 8.600000000000D+01
    4.176000000000D+05 0.000000000000D+00
 2 15 03 26 20 00  0.0 5.559544079006D-04 2.273736754432D-12 0.000000000000D+00
    3.900000000000D+01-8.312500000000D+00 4.883060622518D-09-2.273346813425D+00
   -4.712492227554D-07 1.453668146860D-02 7.880851626396D-06 5.153789031982D+03
    4.176000000000D+05 5.960464477539D-08-8.368995697120D-01-1.434236764908D-07
    9.405492027924D-01 2.157812500000D+02-2.293837466623D+00-8.003190110628D-09
    3.975165474568D-10 1.000000000000D+00 1.837000000000D+03 0.000000000000D+00
    2.000000000000D+00 0.000000000000D+00-2.048909664154D-08 3.900000000000D+01
    4.176000000000D+05 0.000000000000D+00
14 15 03 26 19 59 44.0 7.551768794656D-05-2.728484105319D-12 0.000000000000D+00
    6.000000000000D+00 4.921875000000D+01 4.452685331557D-09-7.945179815373D-01
    2.652406692505D-06 7.894745212980D-03 9.346753358841D-06 5.153576461792D+03
    4.175840000000D+05-8.381903171539D-08 1.363213640737D+00 1.117587089539D-07
    9.669860781658D-01 2.054687500000D+02-1.975267950616D+00-8.049621413875D-09
   -1.578637220945D-10 1.000000000000D+00 1.837000000000D+03 0.000000000000D+00
    2.000000000000D+00 0.000000000000D+00-9.313225746155D-09 6.000000000000D+00
    4.175840000000D+05 0.000000000000D+00
25 15 03 26 19 59 44.0-1.423526555300D-05-3.296918293927D-12 0.000000000000D+00
    2.000000000000D+01-3.234375000000D+01 4.288750243830D-09 1.708154954207D+00
   -1.702457666397D-06 4.413377493620D-03 5.146488547325D-06 5.153706768036D+03
    4.175840000000D+05-1.899898052216D-07-2.902247934299D+00 6.332993507385D-08
    9.782416016321D-01 2.904062500000D+02 6.765702128593D-01-8.152482244839D-09
   -1.332198379389D-10 1.000000000000D+00 1.837000000000D+03 0.000000000000D+00
    2.000000000000D+00 0.000000000000D+00 5.122274160385D-09 2.000000000000D+01
    4.175840000000D+05 0.000000000000D+00
29 15 03 26 20 00  0.0 6.004408933222D-04 2.387423592154D-12 0.000000000000D+00
    8.200000000000D+01-5.481250000000D+01 4.062669312077D-09 2.113709507525D+00
   -2.898275852203D-06 1.388825941831D-03 9.257346391678D-06 5.153792827606D+03
    4.176000000000D+05-3.539025783539D-08-1.801098314951D+00 4.842877388000D-08
    9.723768303466D-01 2.056562500000D+02-7.237763922148D-01-7.835326165662D-09
    1.035757417334D-11 1.000000000000D+00 1.837000000000D+03 0.000000000000D+00
    2.000000000000D+00 0.000000000000D+00-9.778887033463D-09 8.200000000000D+01
    4.176000000000D+05 0.000000000000D+00
31 15 03 26 20 00  0.0 3.201891668141D-04-9.094947017729D-13 0.000000000000D+00
    3.400000000000D+01 7.137500000000D+01 4.372325168589D-09 2.748526420415D+00
    3.820285201073D-06 8.200209587812D-03 6.480142474174D-06 5.153754865646D+03
    4.176000000000D+05-1.862645149231D-08 2.366986578766D+00 1.676380634308D-07
    9.756449761694D-01 2.635625000000D+02-5.281002223169D-01-8.000332840652D-09
    5.607376368788D-11 1.000000000000D+00 1.837000000000D+03 0.000000000000D+00
    2.000000000000D+00 0.000000000000D+00-1.350417733192D-08 3.400000000000D+01
    4.176000000000D+05 0.000000000000D+00
21 15 03 26 20 00  0.0-4.303464666009D-04-3.865352482535D-12 0.000000000000D+00
    6.900000000000D+01-1.640625000000D+01 5.127713809117D-09 1.895178883842D+00
   -1.214444637299D-06 2.243134158198D-02 8.391216397285D-06 5.153591104507D+03
    4.176000000000D+05-4.842877388000D-08-8.218266068683D-01-5.215406417847D-07
    9.336013323114D-01 2.036562500000D+02-1.929320534733D+00-8.223913994243D-09
    3.135844917068D-10 1.000000000000D+00 1.837000000000D+03 0.000000000000D+00
    4.000000000000D+00 0.000000000000D+00-1.164153218269D-08 6.900000000000D+01
    4.176000000000D+05 0.000000000000D+00
25 15 03 26 22 00  0.0-1.425901427865D-05-3.296918293927D-12 0.000000000000D+00
    2.100000000000D+01-2.984375000000D+01 4.240533701960D-09 2.760773885725D+00
   -1.631677150726D-06 4.413786693476D-03 5.254521965981D-06 5.153705472946D+03
    4.248000000000D+05-3.725290298462D-08-2.902306399820D+00-6.146728992462D-08
    9.782415621333D-01 2.860625000000D+02 6.764444048304D-01-7.975689442219D-09
   -1.003613234185D-10 1.000000000000D+00 1.837000000000D+03 0.000000000000D+00
    2.000000000000D+00 0.000000000000D+00 5.122274160385D-09 2.100000000000D+01
    4.248000000000D+05 0.000000000000D+00
12 15 03 26 22 00  0.0 2.797939814627D-04 3.069544618484D-12 0.000000000000D+00
    9.500000000000D+01-3.078125000000D+01 3.978022800055D-09-2.836623415905D+00
   -1.654028892517D-06 5.456740618683D-03 5.302950739861D-06 5.153717195511D+03
    4.248000000000D+05-6.519258022308D-08-2.856421144789D+00-1.862645149231D-07
    9.896969582451D-01 2.885625000000D+02 5.394661902465D-01-7.892828612910D-09
   -1.125046861228D-10 1.000000000000D+00 1.837000000000D+03 0.000000000000D+00
    2.000000000000D+00 0.000000000000D+00-1.257285475731D-08 9.500000000000D+01
    4.248000000000D+05 0.000000000000D+00
14 15 03 26 22 00  0.0 7.549813017249D-05-2.728484105319D-12 0.000000000000D+00
    7.000000000000D+00 4.609375000000D+01 4.430898759011D-09 2.580819890993D-01
    2.233311533928D-06 7.894042297266D-03 8.953735232353D-06 5.153575279236D+03
    4.248000000000D+05-6.891787052155D-08 1.363155124014D+00 3.539025783539D-08
    9.669849209976D-01 2.120937500000D+02-1.975294250957D+00-8.094979797590D-09
   -1.350056177962D-10 1.000000000000D+00 1.837000000000D+03 0.000000000000D+00
    2.000000000000D+00 0.000000000000D+00-9.313225746155D-09 7.000000000000D+00
    4.248000000000D+05 0.000000000000D+00
21 15 03 26 22 00  0.0-4.303744062781D-04-3.865352482535D-12 0.000000000000D+00
    7.200000000000D+01-7.625000000000D+00 4.971278499966D-09 2.945382116290D+00
   -5.513429641724D-07 2.243034029379D-02 7.981434464455D-06 5.153593326569D+03
    4.248000000000D+05 1.620501279831D-07-8.218834383099D-01-1.657754182816D-07
    9.336045331762D-01 2.067812500000D+02-1.929289725678D+00-7.896399978335D-09
    2.207234811591D-10 1.000000000000D+00 1.837000000000D+03 0.000000000000D+00
    4.000000000000D+00 0.000000000000D+00-1.164153218269D-08 7.200000000000D+01
    4.248000000000D+05 0.000000000000D+00
29 15 03 26 22 00  0.0 6.004585884511D-04 2.387423592154D-12 0.000000000000D+00
    8.800000000000D+01-4.596875000000D+01 4.148744459087D-09-3.118669552373D+00
   -2.514570951462D-06 1.390554243699D-03 8.741393685341D-06 5.153789100647D+03
    4.248000000000D+05-3.725290298462D-09-1.801154552448D+00 3.725290298462D-09
    9.723766840548D-01 2.168750000000D+02-7.244765009200D-01-7.846755245566D-09
   -3.178703827933D-11 1.000000000000D+00 1.837000000000D+03 0.000000000000D+00
    2.000000000000D+00 0.000000000000D+00-9.778887033463D-09 8.800000000000D+01
    4.248000000000D+05 0.000000000000D+00
